NUSAT-1 (FRESCO)        
1 41557U 16033B   22062.51723528  .00007223  00000+0  23698-3 0  9994
2 41557  97.3870 160.3013 0012740  40.6079  15.9514 15.31832630321151
BEESAT-4                
1 41619U 16040W   22062.39304690  .00007000  00000+0  25834-3 0  9999
2 41619  97.2333 116.0117 0011401 129.5759 230.6489 15.28009294304517
CAS-2T & KS-1Q          
1 41847U 16066G   22062.19920614  .00000660  00000+0  10854-3 0  9999
2 41847  98.5650 126.9357 0364915 167.4620 193.5955 14.38388385279079
NAYIF-1 (EO-88)         
1 42017U 17008BX  22062.41453943  .00008269  00000+0  27827-3 0  9998
2 42017  97.2829 130.2865 0004106 263.8161  96.2613 15.31026845280839
ZHUHAI-1 02 (CAS-4B)    
1 42759U 17034B   22062.57909958  .00002050  00000+0  13375-3 0  9994
2 42759  43.0157 195.8682 0009055 336.0004 127.0479 15.10977848260337
ZHUHAI-1 01 (CAS-4A)    
1 42761U 17034D   22062.55403192  .00002255  00000+0  14543-3 0  9999
2 42761  43.0162 194.8716 0009306 337.8683 119.2410 15.11065564260336
MAX VALIER SAT          
1 42778U 17036P   22062.42421886  .00004120  00000+0  16706-3 0  9991
2 42778  97.2215 107.2235 0010721 350.4422   9.6611 15.25121890260732
RADFXSAT (FOX-1B)       
1 43017U 17073E   22062.42846330  .00002047  00000+0  15993-3 0  9997
2 43017  97.6878 320.9526 0251912 174.4273 185.9841 14.80457673231420
FOX-1D (AO-92)          
1 43137U 18004AC  22062.48126758  .00005725  00000+0  21769-3 0  9990
2 43137  97.3788 138.7296 0008678  27.0827 333.0863 15.27138398230168
DIWATA-2B               
1 43678U 18084H   22062.49039112  .00000326  00000+0  37987-4 0  9998
2 43678  97.9512 194.6470 0008599 278.3971  81.6248 14.91939390182055
ES'HAIL 2               
1 43700U 18090A   22062.30643063  .00000125  00000+0  00000+0 0  9995
2 43700   0.0123 129.4503 0002294 244.7026 282.9768  1.00272634 11962
FOX-1CLIFF (AO-95)      
1 43770U 18099N   22062.45058801  .00001421  00000+0  13216-3 0  9994
2 43770  97.6333 131.5401 0013029 270.7179  89.2550 14.95824486177169
ITASAT 1                
1 43786U 18099AE  22062.18967802  .00001328  00000+0  12313-3 0  9994
2 43786  97.6356 132.1407 0013696 263.6531  96.3131 14.96051482177160
JY1SAT (JO-97)          
1 43803U 18099AX  22062.43812027  .00001128  00000+0  10441-3 0  9998
2 43803  97.6319 132.1215 0013630 262.7512  97.2161 14.96409323177213
UWE-4                   
1 43880U 18111E   22062.44627987  .00001303  00000+0  11678-3 0  9996
2 43880  97.6764 330.6229 0011333 323.8121  36.2333 14.97460651173835
NEXUS (FO-99)           
1 43937U 19003F   22062.03840522  .00006419  00000+0  23624-3 0  9994
2 43937  97.1450  99.6582 0022304 169.4244 190.7470 15.27955860173719
PSAT2 (NO-104)          
1 44354U 19036R   22062.55737258  .00049985  00000+0  55753-3 0  9995
2 44354  28.5253 185.3313 0273712 228.3724 129.3124 15.27315389148415
BRICSAT2 (NO-103)       
1 44355U 19036S   22062.37641277  .00165447  10052-5  82740-3 0  9993
2 44355  28.5206  77.2049 0132965  45.4246 315.7129 15.68429536149478
JAISAT-1                
1 44419U 19038F   22062.45800190  .00005294  00000+0  28276-3 0  9999
2 44419  97.6247  31.9630 0021612 134.8057 225.4937 15.15352713146995
DUCHIFAT-3              
1 44854U 19089C   22062.24587215  .00002340  00000+0  18974-3 0  9998
2 44854  36.9676   9.5651 0006807  70.8099 289.3388 15.00214414121977
CAS-6 (TO-108)          
1 44881U 19093C   22062.48374663  .00000280  00000+0  42325-4 0  9999
2 44881  97.9009 143.1965 0015257 166.0203 194.1440 14.81580406119087
RS-44 & BREEZE-KM R/B   
1 44909U 19096E   22062.17579047  .00000042  00000+0  12471-3 0  9996
2 44909  82.5207 300.9015 0216800 208.0049 150.9251 12.79712118101914
ORBITAL FACTORY 2 (OF-2)
1 45113U 19071C   22062.45134082  .00014966  00000+0  37801-3 0  9998
2 45113  51.6390 218.7418 0010412 153.0398 207.1130 15.39977138117015
HUSKYSAT-1 (HO-107)     
1 45119U 19071J   22062.47979167  .00012737  00000+0  32684-3 0  9995
2 45119  51.6395 218.1650 0009978 148.8973 211.2604 15.39647087117013
BY70-2                  
1 45857U 20042B   22062.54811994  .00003378  00000+0  47184-3 0  9997
2 45857  97.9636 140.5088 0012202 101.1355 259.1235 14.78263251 89801
SALSAT                  
1 46495U 20068K   22062.39476027  .00001543  00000+0  11619-3 0  9997
2 46495  97.7191   3.7769 0015433 277.6578  82.2895 15.03934495 78242
BY70-3                  
1 46839U 20079N   22062.49318469  .00011450  00000+0  31489-3 0  9992
2 46839  97.2119 136.2943 0006284   9.2569  49.8823 15.37328753 73941
RADFXSAT-2 (AO-109)     
1 47311U 21002C   22062.46855606  .00005262  00000+0  23011-3 0  9997
2 47311  60.6874  40.6147 0018604 188.5180 171.5594 15.23355660 62300
UVSQ-SAT                
1 47438U 21006AB  22062.13842059  .00002746  00000+0  15346-3 0  9999
2 47438  97.4522 123.3659 0010848 285.4382  74.5651 15.14281655 61181
DIY-1 (ARDUIQUBE)       
1 47963U 21022AH  22061.97226775  .00006875  00000+0  42605-3 0  9997
2 47963  97.5434 324.8061 0019478 134.7124 225.5695 15.09916344 50863
XW-3 (CAS-9)            
1 50466U 21131B   22062.51318690  .00000050  00000+0  30868-4 0  9997
2 50466  98.5885 139.7922 0005779 106.2366 253.9457 14.38445423  9687
